OBJECT_NAME,OBJECT_ID,EPOCH,MEAN_MOTION,ECCENTRICITY,INCLINATION,RA_OF_ASC_NODE,ARG_OF_PERICENTER,MEAN_ANOMALY,EPHEMERIS_TYPE,CLASSIFICATION_TYPE,NORAD_CAT_ID,ELEMENT_SET_NO,REV_AT_EPOCH,BSTAR,MEAN_MOTION_DOT,MEAN_MOTION_DDOT
SPAINSAT NG I,2025-021A,2026-07-06T00:41:56.903712,1.00275979,.00003006,0.0008,353.2334,118.4036,211.8604,0,U,62852,999,417,0,.166E-5,0
QZS-6 (MICHIBIKI-6),2025-023A,2026-07-06T02:14:52.464192,1.00270218,.00019679,0.0359,290.1372,191.9070,286.2799,0,U,62876,999,513,0,-.219E-5,0
ZHONGXING-10R,2025-036A,2026-07-06T05:45:41.141664,1.00268781,.00041687,0.0490,229.6201,280.8432,330.6986,0,U,63075,999,515,0,-.337E-5,0
TJS-15,2025-045A,2026-07-02T18:13:22.827936,1.00274962,.0003804,0.3058,85.5733,301.9252,260.9777,0,U,63157,999,491,0,-.254E-5,0
TIANLIAN 2-04,2025-062A,2026-07-06T03:54:33.490368,1.00270547,.00312722,4.3286,274.1617,9.6052,139.0711,0,U,63361,999,479,0,-.119E-5,0
TJS-16,2025-064A,2026-07-02T16:45:57.134016,1.00272015,.0002939,1.1359,81.3849,299.1841,312.2806,0,U,63397,999,454,0,-.95E-6,0
TJS-17,2025-073A,2026-07-02T18:36:52.481952,1.00271016,.0001564,1.1020,82.5843,315.8143,326.1705,0,U,63524,999,444,0,-.59E-6,0
TIANLIAN 2-05,2025-084A,2026-07-06T07:02:45.605760,1.00269544,.00030002,4.4055,279.6094,152.8366,337.9339,0,U,63662,999,457,0,.14E-5,0
TJS-19,2025-097A,2026-07-02T18:04:31.516320,1.00271699,.0003438,3.2611,317.6772,238.0724,137.4555,0,U,63924,999,430,0,-.263E-5,0
CHINASAT 3B,2025-106A,2026-07-04T21:31:38.232192,1.00282752,.00040402,0.0413,190.5871,312.7273,269.8013,0,U,64062,999,423,0,-.3E-6,0
SXM-10,2025-122A,2026-07-05T23:33:16.797024,1.00274817,.00017508,0.0148,32.1652,330.2704,158.7032,0,U,64290,999,387,0,-.3E-7,0
COSMOS 2589,2025-131A,2026-07-02T18:07:05.854368,1.00272301,.0000936,0.0398,102.1054,108.8979,79.5624,0,U,64467,999,371,0,-.28E-5,0
CHINASAT 9C,2025-132A,2026-07-06T02:15:22.415616,1.00272462,.00031202,0.0436,231.8745,236.0582,302.2074,0,U,64470,999,433,0,-.233E-5,0
MTG-S1,2025-143A,2026-07-06T03:31:35.691168,1.00272464,.00031858,0.5896,342.9064,262.0959,91.5794,0,U,64723,999,360,0,.6E-7,0
DROR 1,2025-148A,2026-07-06T03:30:35.785728,1.00272364,.00022348,0.0109,48.0807,351.9057,292.7894,0,U,64784,999,348,0,-.2E-6,0
SHIYAN-29,2025-196A,2026-07-05T18:31:28.747200,1.00280025,.00135295,28.8406,18.3010,175.7400,102.7563,0,U,65486,999,306,0,-.269E-5,0
NUSANTARA LIMA (NUSANTARA 5),2025-205A,2026-07-06T05:46:33.557952,1.00269982,.0000439,0.0275,170.6343,340.3830,332.7015,0,U,65588,999,291,0,-.343E-5,0
TJS-20,2025-238A,2026-07-05T22:41:29.262048,1.00272818,.00046061,5.4296,299.4694,174.6317,212.5949,0,U,66142,999,252,0,.4E-6,0
CMS-03 (GSAT-7R),2025-249B,2026-07-06T03:52:48.656928,1.00271595,.00018075,0.0494,255.4360,180.7736,340.1171,0,U,66311,999,253,0,-.62E-6,0
VIASAT-3 F2,2025-261A,2026-07-05T22:01:14.496096,1.00274040,.00008394,0.0330,206.4858,3.1946,325.5690,0,U,66454,999,298,0,-.22E-5,0
SHIJIAN-28 (SJ-28),2025-277A,2026-07-06T05:47:40.949952,1.00272478,.00009213,4.4917,271.8270,35.9222,180.2619,0,U,66549,999,234,0,-.344E-5,0
TJS-22,2025-290A,2026-07-05T19:48:51.234336,1.00274125,.00022871,1.4837,286.8085,319.3838,41.3471,0,U,66990,999,221,0,.7E-7,0
TJS-23,2025-306A,2026-07-05T13:14:16.124064,1.00273150,.0004766,5.5464,297.3930,187.9335,172.2584,0,U,67226,999,207,0,.31E-6,0
FENGYUN 4C,2025-312A,2026-07-05T15:22:10.180704,1.00270800,.0000618,0.0414,177.4243,20.0789,89.6709,0,U,67246,999,196,0,-.309E-5,0
SHIJIAN-29A (SJ-29A),2025-315A,2026-07-06T03:52:33.681216,1.00270906,.00034396,3.4430,94.6655,29.4005,291.3487,0,U,67302,999,180,0,-.54E-6,0
SHIJIAN-29B (SJ-29B),2025-315C,2026-07-06T02:09:52.943040,1.00272310,.00047954,3.4418,94.6599,46.7434,248.3251,0,U,67403,999,187,0,-.55E-6,0
ELEKTRO-L 5,2026-028A,2026-07-05T23:59:49.410816,1.00272006,.0001891,0.2200,320.0668,179.1655,220.7830,0,U,67756,999,144,0,-.84E-6,0
JAM-E JAM 1,2026-028B,2026-07-06T03:41:27.246048,1.00269877,.00013963,0.2237,308.5530,331.6776,93.2924,0,U,67757,999,131,0,.17E-5,0
ECHOSTAR 25,2026-045A,2026-07-06T03:00:19.681920,1.00270731,.00015598,0.0188,28.6291,81.6500,108.9195,0,U,68126,999,118,0,-.42E-6,0
TJS-24,2026-116A,2026-07-06T05:15:38.764224,1.00272929,.00001269,0.0550,99.0084,46.3743,308.0320,0,U,69235,999,42,0,-.217E-5,0
