SPAINSAT NG I           
1 62852U 25021A   26187.02913083  .00000166  00000+0  00000+0 0  9994
2 62852   0.0008 353.2334 0000300 118.4036 211.8604  1.00275979  4176
QZS-6 (MICHIBIKI-6)     
1 62876U 25023A   26187.09366278 -.00000219  00000+0  00000+0 0  9997
2 62876   0.0359 290.1372 0001967 191.9070 286.2799  1.00270218  5135
ZHONGXING-10R           
1 63075U 25036A   26187.24005951 -.00000337  00000+0  00000+0 0  9999
2 63075   0.0490 229.6201 0004168 280.8432 330.6986  1.00268781  5153
TJS-15                  
1 63157U 25045A   26183.75929199 -.00000254  00000+0  00000+0 0  9999
2 63157   0.3058  85.5733 0003804 301.9252 260.9777  1.00274962  4911
TIANLIAN 2-04           
1 63361U 25062A   26187.16288762 -.00000119  00000+0  00000+0 0  9998
2 63361   4.3286 274.1617 0031272   9.6052 139.0711  1.00270547  4797
TJS-16                  
1 63397U 25064A   26183.69857794 -.00000095  00000+0  00000+0 0  9993
2 63397   1.1359  81.3849 0002939 299.1841 312.2806  1.00272015  4542
TJS-17                  
1 63524U 25073A   26183.77560743 -.00000059  00000+0  00000+0 0  9999
2 63524   1.1020  82.5843 0001564 315.8143 326.1705  1.00271016  4441
TIANLIAN 2-05           
1 63662U 25084A   26187.29358340  .00000140  00000+0  00000+0 0  9993
2 63662   4.4055 279.6094 0003000 152.8366 337.9339  1.00269544  4578
TJS-19                  
1 63924U 25097A   26183.75314255 -.00000263  00000+0  00000+0 0  9999
2 63924   3.2611 317.6772 0003438 238.0724 137.4555  1.00271699  4308
CHINASAT 3B             
1 64062U 25106A   26185.89697028 -.00000030  00000+0  00000+0 0  9995
2 64062   0.0413 190.5871 0004040 312.7273 269.8013  1.00282752  4237
SXM-10                  
1 64290U 25122A   26186.98144441 -.00000003  00000+0  00000+0 0  9993
2 64290   0.0148  32.1652 0001750 330.2704 158.7032  1.00274817  3871
COSMOS 2589             
1 64467U 25131A   26183.75492887 -.00000280  00000+0  00000+0 0  9998
2 64467   0.0398 102.1054 0000936 108.8979  79.5624  1.00272301  3712
CHINASAT 9C             
1 64470U 25132A   26187.09400944 -.00000233  00000+0  00000+0 0  9995
2 64470   0.0436 231.8745 0003120 236.0582 302.2074  1.00272462  4330
MTG-S1                  
1 64723U 25143A   26187.14694087  .00000006  00000+0  00000+0 0  9994
2 64723   0.5896 342.9064 0003185 262.0959  91.5794  1.00272464  3600
DROR 1                  
1 64784U 25148A   26187.14624752 -.00000020  00000+0  00000+0 0  9995
2 64784   0.0109  48.0807 0002234 351.9057 292.7894  1.00272364  3480
SHIYAN-29               
1 65486U 25196A   26186.77186050 -.00000269  00000+0  00000+0 0  9995
2 65486  28.8406  18.3010 0013529 175.7400 102.7563  1.00280025  3067
NUSANTARA LIMA (NUSANT*)
1 65588U 25205A   26187.24066618 -.00000343  00000+0  00000+0 0  9992
2 65588   0.0275 170.6343 0000439 340.3830 332.7015  1.00269982  2919
TJS-20                  
1 66142U 25238A   26186.94547757  .00000040  00000+0  00000+0 0  9992
2 66142   5.4296 299.4694 0004606 174.6317 212.5949  1.00272818  2525
CMS-03 (GSAT-7R)        
1 66311U 25249B   26187.16167427 -.00000062  00000+0  00000+0 0  9994
2 66311   0.0494 255.4360 0001807 180.7736 340.1171  1.00271595  2536
VIASAT-3 F2             
1 66454U 25261A   26186.91752889 -.00000220  00000+0  00000+0 0  9996
2 66454   0.0330 206.4858 0000839   3.1946 325.5690  1.00274040  2986
SHIJIAN-28 (SJ-28)      
1 66549U 25277A   26187.24144618 -.00000344  00000+0  00000+0 0  9997
2 66549   4.4917 271.8270 0000921  35.9222 180.2619  1.00272478  2346
TJS-22                  
1 66990U 25290A   26186.82559299  .00000007  00000+0  00000+0 0  9995
2 66990   1.4837 286.8085 0002287 319.3838  41.3471  1.00274125  2213
TJS-23                  
1 67226U 25306A   26186.55157551  .00000031  00000+0  00000+0 0  9998
2 67226   5.5464 297.3930 0004766 187.9335 172.2584  1.00273150  2078
FENGYUN 4C              
1 67246U 25312A   26186.64039561 -.00000309  00000+0  00000+0 0  9996
2 67246   0.0414 177.4243 0000618  20.0789  89.6709  1.00270800  1968
SHIJIAN-29A (SJ-29A)    
1 67302U 25315A   26187.16150094 -.00000054  00000+0  00000+0 0  9992
2 67302   3.4430  94.6655 0003439  29.4005 291.3487  1.00270906  1806
SHIJIAN-29B (SJ-29B)    
1 67403U 25315C   26187.09019610 -.00000055  00000+0  00000+0 0  9995
2 67403   3.4418  94.6599 0004795  46.7434 248.3251  1.00272310  1874
ELEKTRO-L 5             
1 67756U 26028A   26186.99987744 -.00000084  00000+0  00000+0 0  9990
2 67756   0.2200 320.0668 0001891 179.1655 220.7830  1.00272006  1444
JAM-E JAM 1             
1 67757U 26028B   26187.15378757  .00000170  00000+0  00000+0 0  9993
2 67757   0.2237 308.5530 0001396 331.6776  93.2924  1.00269877  1318
ECHOSTAR 25             
1 68126U 26045A   26187.12522780 -.00000042  00000+0  00000+0 0  9996
2 68126   0.0188  28.6291 0001559  81.6500 108.9195  1.00270731  1184
TJS-24                  
1 69235U 26116A   26187.21919866 -.00000217  00000+0  00000+0 0  9996
2 69235   0.0550  99.0084 0000126  46.3743 308.0320  1.00272929   427
